ONEWEB-0268             
1 48986U 21060V   22100.25002315 -.00022283  00000+0 -58443-1 0  9990
2 48986  87.9189 173.0585 0002168 113.7146 114.2680 13.16618758 39952
ONEWEB-0269             
1 48987U 21060W   22099.91667824 -.00023307  00000+0 -61150-1 0  9990
2 48987  87.9183 173.1634 0002169 106.2779  70.1272 13.16601785  3289
ONEWEB-0270             
1 48988U 21060X   22100.25002315 -.00022159  00000+0 -58129-1 0  9995
2 48988  87.9192 173.0637 0002084  96.0742 143.0580 13.16605795 39785
ONEWEB-0271             
1 48989U 21060Y   22100.25002315 -.00022170  00000+0 -58149-1 0  9991
2 48989  87.9167 173.0786 0002692  97.5799 196.1496 13.16613707 39761
ONEWEB-0272             
1 48990U 21060Z   22100.25002315 -.00022893  00000+0 -60057-1 0  9996
2 48990  87.9179 173.0713 0002581 102.5987  81.9443 13.16607328 39720
ONEWEB-0273             
1 48991U 21060AA  22100.25002315 -.00024011  00000+0 -62993-1 0  9992
2 48991  87.9194 173.0633 0002322  96.4588 349.9076 13.16609831 39708
ONEWEB-0274             
1 48992U 21060AB  22100.25002315 -.00022585  00000+0 -59241-1 0  9999
2 48992  87.9165 173.1053 0002559  97.2220 229.1407 13.16612479 39741
ONEWEB-0275             
1 48993U 21060AC  22100.25002315 -.00023589  00000+0 -61885-1 0  9992
2 48993  87.9184 173.0755 0002302 101.3439 279.5226 13.16608796 39662
ONEWEB-0276             
1 48994U 21060AD  22100.25002315 -.00022289  00000+0 -58470-1 0  9995
2 48994  87.9169 173.1273 0002528  94.2672 122.9674 13.16605968 39689
ONEWEB-0277             
1 48995U 21060AE  22100.25002315 -.00023219  00000+0 -60913-1 0  9995
2 48995  87.9170 173.1285 0002845  96.7906  54.9860 13.16607101 39664
ONEWEB-0278             
1 48996U 21060AF  22100.25002315 -.00022644  00000+0 -59401-1 0  9997
2 48996  87.9222 173.0079 0002288  99.1418 107.2262 13.16606457 39817
ONEWEB-0279             
1 48997U 21060AG  22100.25002315 -.00023261  00000+0 -61021-1 0  9995
2 48997  87.9186 173.0614 0001962 101.4147  61.3647 13.16608816 39735
ONEWEB-0280             
1 48998U 21060AH  22100.25002315 -.00023942  00000+0 -62813-1 0  9992
2 48998  87.9186 173.0848 0003146  96.3997   0.8720 13.16608262 39663
ONEWEB-0281             
1 48999U 21060AJ  22100.25002315 -.00024024  00000+0 -63027-1 0  9993
2 48999  87.9191 173.0491 0002178 112.4887 312.0862 13.16610101 39756
ONEWEB-0282             
1 49000U 21060AK  22100.25002315 -.00022044  00000+0 -57825-1 0  9996
2 49000  87.9177 173.1077 0002476  92.7555 189.9864 13.16607557 39730
ONEWEB-0283             
1 49001U 21060AL  22100.25002315 -.00022783  00000+0 -59762-1 0  9999
2 49001  87.9176 173.1073 0002540 100.1427 237.1991 13.16614048 39752
ONEWEB-0284             
1 49002U 21060AM  22100.25002315 -.00023385  00000+0 -61343-1 0  9997
2 49002  87.9195 173.1077 0002353  93.1910 276.8983 13.16615158 39729
ONEWEB-0285             
1 49075U 21075A   22100.58334491  .00000015  00000+0  00000+0 0  9996
2 49075  87.8961 294.6143 0016194 196.1314  57.2440 13.65594687 35623
ONEWEB-0286             
1 49076U 21075B   22100.58334491 -.00022368  00000+0 -56709-1 0  9993
2 49076  87.9117 294.4440 0002005 122.3323 344.3126 13.18924465 35038
ONEWEB-0287             
1 49077U 21075C   22099.91667824  .00036387  00000+0  93347-1 0  9990
2 49077  87.9054 309.9179 0001622  74.4534  18.4885 13.17623323  3310
ONEWEB-0288             
1 49078U 21075D   22100.58334491  .00000015  00000+0  00000+0 0  9999
2 49078  87.8287 294.6894 0017271 197.2214   7.9748 13.62859787 35623
ONEWEB-0289             
1 49079U 21075E   22100.58334491  .00001107  00000+0  28178-2 0  9992
2 49079  87.9057 309.7540 0001657  95.2509 190.1705 13.17646221 33871
ONEWEB-0290             
1 49080U 21075F   22099.91667824  .00035670  00000+0  91510-1 0  9998
2 49080  87.9049 309.9220 0001710  74.2137 349.3361 13.17626908  3283
ONEWEB-0291             
1 49081U 21075G   22099.91667824  .00036714  00000+0  94177-1 0  9991
2 49081  87.9035 309.9309 0001598  75.6058  39.3713 13.17626886  3291
ONEWEB-0293             
1 49082U 21075H   22100.25002315 -.00041042  00000+0 -10619+0 0  9999
2 49082  87.9056 309.8185 0001738  74.4036 100.0400 13.17665988 33260
ONEWEB-0294             
1 49083U 21075J   22100.58334491 -.00021833  00000+0 -55325-1 0  9990
2 49083  87.9120 294.4042 0001842  84.7869  62.3123 13.18954111 35059
ONEWEB-0295             
1 49084U 21075K   22100.25002315 -.00041961  00000+0 -10858+0 0  9996
2 49084  87.9045 309.7948 0001266  67.7260  99.4438 13.17663794 33205
ONEWEB-0296             
1 49085U 21075L   22100.25002315 -.00024002  00000+0 -67160-1 0  9994
2 49085  87.8920 294.4507 0001475  81.3911  51.4801 13.12205706 35018
ONEWEB-0297             
1 49086U 21075M   22100.58334491  .00000015  00000+0  00000+0 0  9998
2 49086  87.8458 294.6532 0015548 198.2258 132.0676 13.60717809 35621
ONEWEB-0298             
1 49087U 21075N   22100.25002315 -.00042006  00000+0 -10869+0 0  9992
2 49087  87.9064 309.7927 0001462 102.8530  57.0144 13.17668216 33269
ONEWEB-0299             
1 49088U 21075P   22100.25002315 -.00041990  00000+0 -10865+0 0  9990
2 49088  87.9056 309.7495 0001549  92.8297  59.6161 13.17667355 33221
ONEWEB-0300             
1 49089U 21075Q   22100.58334491  .00000015  00000+0  00000+0 0  9991
2 49089  87.8876 294.6259 0016669 205.9403 172.5262 13.66728746 35647
ONEWEB-0301             
1 49090U 21075R   22100.25002315 -.00023658  00000+0 -65965-1 0  9997
2 49090  87.8909 294.4336 0002244  98.0636   1.3024 13.12443130 35000
ONEWEB-0302             
1 49091U 21075S   22100.58334491  .00000013  00000+0  00000+0 0  9992
2 49091  87.8935 294.4390 0001481  97.7007 185.2215 13.15187685 35041
ONEWEB-0304             
1 49092U 21075T   22100.25002315 -.00040726  00000+0 -10537+0 0  9997
2 49092  87.9049 309.8186 0001767  88.0174 137.9187 13.17663875 33208
ONEWEB-0305             
1 49093U 21075U   22100.25002315 -.00039442  00000+0 -10203+0 0  9991
2 49093  87.9053 309.8599 0001300  91.8201 170.8978 13.17667542 33230
ONEWEB-0308             
1 49094U 21075V   22100.58334491 -.00272326  00000+0 -77719+0 0  9996
2 49094  87.8919 294.4029 0001988  90.0797 219.4218 13.12655997 35056
ONEWEB-0309             
1 49095U 21075W   22100.25002315 -.00040230  00000+0 -10408+0 0  9997
2 49095  87.9059 309.8548 0002042  68.4181 172.1437 13.17665156 33226
ONEWEB-0310             
1 49096U 21075X   22100.58334491  .00000015  00000+0  00000+0 0  9999
2 49096  87.8011 294.7067 0016280 202.4894 137.3591 13.64054771 35630
ONEWEB-0311             
1 49097U 21075Y   22100.25002315 -.00040984  00000+0 -10604+0 0  9993
2 49097  87.9057 309.8581 0001390  99.3594 119.3061 13.17665737 33275
ONEWEB-0312             
1 49098U 21075Z   22100.25002315 -.00041802  00000+0 -10816+0 0  9999
2 49098  87.9069 309.8023 0001511  74.6383 107.2516 13.17667761 33233
ONEWEB-0313             
1 49099U 21075AA  22100.25002315 -.00039969  00000+0 -10340+0 0  9993
2 49099  87.9055 309.8605 0001475  72.8448 175.1406 13.17666435 33257
ONEWEB-0314             
1 49100U 21075AB  22100.25002315 -.00039142  00000+0 -10126+0 0  9991
2 49100  87.9062 309.8522 0001470  75.7610 194.2014 13.17662391 33214
ONEWEB-0315             
1 49101U 21075AC  22100.58334491  .00000014  00000+0  00000+0 0  9995
2 49101  87.8472 294.6478 0017179 201.4453 314.1514 13.56290937 35627
ONEWEB-0316             
1 49102U 21075AD  22100.58334491 -.00045737  00000+0 -52466-2 0  9995
2 49102  87.3112 284.5107 0018810 171.1404 327.2470 14.86126081 35889
ONEWEB-0317             
1 49103U 21075AE  22100.58334491  .00000014  00000+0  00000+0 0  9997
2 49103  87.8965 294.5911 0016226 191.9314  63.2919 13.59199649 35631
ONEWEB-0318             
1 49104U 21075AF  22100.58334491 -.00047285  00000+0 -54224-2 0  9991
2 49104  87.3255 284.4013 0020009 169.8025   5.8951 14.86129918 35885
ONEWEB-0319             
1 49105U 21075AG  22100.25002315 -.00041188  00000+0 -10657+0 0  9998
2 49105  87.9056 309.8196 0001202 115.1145  96.0924 13.17665648 33244
ONEWEB-0323             
1 49106U 21075AH  22100.25002315 -.00025503  00000+0 -64658-1 0  9994
2 49106  87.9127 294.4796 0002510 111.6688 178.5152 13.18941425 35001
ONEWEB-0329             
1 49107U 21075AJ  22100.25002315 -.00041546  00000+0 -10750+0 0  9992
2 49107  87.9054 309.8214 0001493  83.1590 113.3630 13.17665813 33224
ONEWEB-0330             
1 49108U 21075AK  22100.25002315 -.00041702  00000+0 -10791+0 0  9992
2 49108  87.9057 309.8363 0001597  82.7874 106.3892 13.17662538 33265
ONEWEB-0292             
1 49186U 21083A   22100.25002315  .00022851  00000+0  62397-1 0  9990
2 49186  87.9095 263.8594 0001863 101.1451 120.6885 13.13456347 31502
ONEWEB-0303             
1 49187U 21083B   22100.25002315 -.00001751  00000+0 -44753-2 0  9996
2 49187  87.9065 279.3021 0001470  96.7375 315.0030 13.18682459 29751
ONEWEB-0306             
1 49188U 21083C   22100.25002315 -.00002129  00000+0 -54352-2 0  9993
2 49188  87.9071 279.2870 0001572 114.3821 326.7096 13.18683449 29791
ONEWEB-0307             
1 49189U 21083D   22100.25002315  .00022006  00000+0  60101-1 0  9996
2 49189  87.8971 263.8630 0001662  93.3675 149.9674 13.13448138 31504
ONEWEB-0320             
1 49190U 21083E   22100.25002315 -.00001865  00000+0 -47637-2 0  9990
2 49190  87.9068 279.3083 0001927  84.4520 334.5145 13.18685083 29758
ONEWEB-0321             
1 49191U 21083F   22100.25002315  .00051880  00000+0  53660-2 0  9994
2 49191  87.2038 254.6931 0001505  17.9766  99.8928 14.89849163 32284
ONEWEB-0322             
1 49192U 21083G   22100.25002315  .00021102  00000+0  57620-1 0  9998
2 49192  87.9068 263.8988 0001997  80.0618 183.8684 13.13468110 31503
ONEWEB-0324             
1 49193U 21083H   22100.25002315 -.00002559  00000+0 -65269-2 0  9995
2 49193  87.9057 279.3091 0001263 104.9131   5.5473 13.18681655 29779
